{
    "links": {
        "self": "http://www.neowsapp.com/rest/v1/neo/3841779?api_key=iIulBulltgU6a56xZRHN4H3l9WmuAYTsLGpBGhQ2"
    },
    "id": "3841779",
    "neo_reference_id": "3841779",
    "name": "(2019 JP3)",
    "designation": "2019 JP3",
    "nasa_jpl_url": "http://ssd.jpl.nasa.gov/sbdb.cgi?sstr=3841779",
    "absolute_magnitude_h": 24.5,
    "estimated_diameter": {
        "kilometers": {
            "estimated_diameter_min": 0.0334622374,
            "estimated_diameter_max": 0.0748238376
        },
        "meters": {
            "estimated_diameter_min": 33.4622374455,
            "estimated_diameter_max": 74.8238376074
        },
        "miles": {
            "estimated_diameter_min": 0.0207924639,
            "estimated_diameter_max": 0.0464933628
        },
        "feet": {
            "estimated_diameter_min": 109.7842471007,
            "estimated_diameter_max": 245.4850393757
        }
    },
    "is_potentially_hazardous_asteroid": false,
    "close_approach_data": [
        {
            "close_approach_date": "2019-05-29",
            "close_approach_date_full": "2019-May-29 19:39",
            "epoch_date_close_approach": 1559158740000,
            "relative_velocity": {
                "kilometers_per_second": "7.9401633818",
                "kilometers_per_hour": "28584.5881744894",
                "miles_per_hour": "17761.3514687542"
            },
            "miss_distance": {
                "astronomical": "0.0593770158",
                "lunar": "23.0976591462",
                "kilometers": "8882675.090636346",
                "miles": "5519438.3615637348"
            },
            "orbiting_body": "Earth"
        },
        {
            "close_approach_date": "2022-10-26",
            "close_approach_date_full": "2022-Oct-26 16:51",
            "epoch_date_close_approach": 1666803060000,
            "relative_velocity": {
                "kilometers_per_second": "8.8228276921",
                "kilometers_per_hour": "31762.1796915704",
                "miles_per_hour": "19735.783264465"
            },
            "miss_distance": {
                "astronomical": "0.4428341062",
                "lunar": "172.2624673118",
                "kilometers": "66247039.050873794",
                "miles": "41164001.2661105972"
            },
            "orbiting_body": "Earth"
        }
    ],
    "orbital_data": {
        "orbit_id": "4",
        "orbit_determination_date": "2019-05-25 06:25:49",
        "first_observation_date": "2019-05-08",
        "last_observation_date": "2019-05-24",
        "data_arc_in_days": 16,
        "observations_used": 18,
        "orbit_uncertainty": "8",
        "minimum_orbit_intersection": ".0594743",
        "jupiter_tisserand_invariant": "5.012",
        "epoch_osculation": "2458614.5",
        "eccentricity": ".1652887089995886",
        "semi_major_axis": "1.279968222047301",
        "inclination": "14.58559311513946",
        "ascending_node_longitude": "65.87626618839759",
        "orbital_period": "528.9287917806205",
        "perihelion_distance": "1.068403927064604",
        "perihelion_argument": "194.8716731785835",
        "aphelion_distance": "1.491532517029998",
        "perihelion_time": "2458646.526212714434",
        "mean_anomaly": "338.2022896912403",
        "mean_motion": ".6806209183434172",
        "equinox": "J2000",
        "orbit_class": {
            "orbit_class_type": "AMO",
            "orbit_class_description": "Near-Earth asteroid orbits similar to that of 1221 Amor",
            "orbit_class_range": "1.017 AU < q (perihelion) < 1.3 AU"
        }
    },
    "is_sentry_object": false
}